STARLINK-11739 [DTC]    
1 64374U 25127E   26156.03359209  .00231963  00000+0  17385-2 0  9991
2 64374  42.9967 277.6712 0002285 323.4436  36.6276 15.71149625 57246
STARLINK-11738 [DTC]    
1 64375U 25127F   26154.56598198  .00143813  00000+0  11019-2 0  9994
2 64375  43.0008 287.3353 0001749 264.1949  95.8719 15.70905520 57004
STARLINK-11745 [DTC]    
1 64376U 25127G   26156.06013789  .00270059  00000+0  20373-2 0  9996
2 64376  42.9971 277.8837 0001017 325.3691  34.7110 15.70876556 57244
STARLINK-11742 [DTC]    
1 64377U 25127H   26155.69455923  .00174575  00000+0  13347-2 0  9994
2 64377  42.9996 280.3130 0001652 289.7630  70.3059 15.70855902 57181
STARLINK-11711 [DTC]    
1 64378U 25127J   26156.04420997  .00239108  00000+0  17896-2 0  9995
2 64378  42.9967 277.7531 0002043 329.6464  30.4286 15.71159906 57359
STARLINK-11743 [DTC]    
1 64379U 25127K   26154.66685185 -.00114206  00000+0 -89715-3 0  9997
2 64379  43.0001 286.6555 0001651 271.2332 329.9754 15.70882825  5942
STARLINK-11744 [DTC]    
1 64380U 25127L   26155.68924792  .00094428  00000+0  73056-3 0  9994
2 64380  43.0000 280.2693 0002166 291.7063  68.3574 15.70855302 57183
STARLINK-11692 [DTC]    
1 64381U 25127M   26154.59239693  .00187307  00000+0  14334-2 0  9995
2 64381  43.0010 286.6509 0001966 275.2779  84.7864 15.70792137 57123
STARLINK-11740 [DTC]    
1 64382U 25127N   26156.03889832  .00200083  00000+0  15092-2 0  9992
2 64382  42.9986 277.7076 0002117 320.2429  39.8284 15.71096523 57243
STARLINK-34299          
1 64383U 25127P   26154.81015921  .00028300  00000+0  10317-2 0  9992
2 64383  42.9994  53.8063 0002198 245.3941 114.6681 15.27652599 55587
STARLINK-34271          
1 64384U 25127Q   26156.17171323  .00015343  00000+0  56505-3 0  9996
2 64384  42.9994  45.9596 0001455 254.8339 105.2352 15.27630710 55843
STARLINK-34100          
1 64385U 25127R   26156.04480705  .00021219  00000+0  77721-3 0  9992
2 64385  42.9996  46.7288 0001365 265.2520  94.8176 15.27629367 55776
STARLINK-34269          
1 64386U 25127S   26152.92536885  .00031858  00000+0  11618-2 0  9999
2 64386  43.0022  63.7322 0001635 253.0170 107.0503 15.27591193 55353
STARLINK-34351          
1 64387U 25127T   26155.60493301  .00027624  00000+0  10079-2 0  9999
2 64387  43.0008  48.5824 0001586 248.7312 111.3370 15.27635671 55765
STARLINK-34198          
1 64388U 25127U   26154.81900427  .00019548  00000+0  71722-3 0  9993
2 64388  43.0011  53.0066 0001632 250.6773 109.3902 15.27615671 55647
STARLINK-34279          
1 64389U 25127V   26152.20112782  .00017532  00000+0  64498-3 0  9997
2 64389  43.0022  68.6258 0001445 252.4199 107.6495 15.27586698 55238
STARLINK-34292          
1 64390U 25127W   26155.77553573  .00033263  00000+0  12086-2 0  9995
2 64390  43.0007  48.1445 0002729 244.2805 115.7765 15.27692791 55785
STARLINK-34278          
1 64391U 25127X   26155.73956248  .00020133  00000+0  73770-3 0  9998
2 64391  42.9987  47.8729 0000877 215.3926 144.6868 15.27645113 55788
STARLINK-33802          
1 64392U 25127Y   26155.06785095  .00016520  00000+0  60765-3 0  9990
2 64392  42.9982  52.2952 0001803 250.2045 109.8612 15.27624544 55721
ZHANGHENG 1-02 (CSES-2) 
1 64393U 25128A   26156.21063654 -.00000041  00000+0  12341-5 0  9991
2 64393  97.3583 283.2747 0013429 150.0890 210.1116 15.20974364 54100
STARLINK-34419          
1 64412U 25129A   26154.61063650  .00002011  00000+0  17629-3 0  9992
2 64412  69.9998 217.9599 0003955 271.6851  88.3855 14.98336494 54178
STARLINK-34275          
1 64413U 25129B   26155.25753378  .00000424  00000+0  43370-4 0  9996
2 64413  69.9994 216.2122 0004029 275.2669  84.8030 14.98330055 54251
STARLINK-34225          
1 64414U 25129C   26155.21982500  .00003213  00000+0  27691-3 0  9990
2 64414  69.9995 216.4782 0003820 267.9859  92.0863 14.98337025 54242
STARLINK-34422          
1 64415U 25129D   26155.26571276  .00002726  00000+0  23609-3 0  9993
2 64415  69.9997 216.2440 0003747 269.4227  90.6502 14.98338701 54198
STARLINK-34514          
1 64416U 25129E   26155.22814749  .00002464  00000+0  21417-3 0  9999
2 64416  69.9987 216.1130 0004023 271.9239  88.1459 14.98335265 54254
STARLINK-34487          
1 64417U 25129F   26155.23232313  .00003191  00000+0  27510-3 0  9990
2 64417  69.9993 216.1256 0003674 269.0559  91.0179 14.98335538 54193
STARLINK-34461          
1 64418U 25129G   26155.21581651  .00002838  00000+0  24549-3 0  9997
2 64418  69.9996 216.4668 0003598 269.8559  90.2187 14.98337384 54247
STARLINK-34512          
1 64419U 25129H   26156.16670139  .00010611  00000+0  89565-3 0  9990
2 64419  70.0000 213.9903 0003458 266.1642 249.9284 14.98333044  5683
STARLINK-34503          
1 64420U 25129J   26155.27422653  .00002711  00000+0  23485-3 0  9990
2 64420  69.9999 216.2687 0003670 266.7338  93.3401 14.98338493 54193
STARLINK-34498          
1 64421U 25129K   26155.26153964  .00002709  00000+0  23469-3 0  9995
2 64421  69.9998 216.2311 0003796 264.3995  95.6731 14.98337843 54255
