OBJECT_NAME,OBJECT_ID,EPOCH,MEAN_MOTION,ECCENTRICITY,INCLINATION,RA_OF_ASC_NODE,ARG_OF_PERICENTER,MEAN_ANOMALY,EPHEMERIS_TYPE,CLASSIFICATION_TYPE,NORAD_CAT_ID,ELEMENT_SET_NO,REV_AT_EPOCH,BSTAR,MEAN_MOTION_DOT,MEAN_MOTION_DDOT
STARLINK-11739 [DTC],2025-127E,2026-06-05T00:48:22.356576,15.71149625,.0002285,42.9967,277.6712,323.4436,36.6276,0,U,64374,999,5724,.17385E-2,.231963E-2,0
STARLINK-11738 [DTC],2025-127F,2026-06-03T13:35:00.843072,15.70905520,.0001749,43.0008,287.3353,264.1949,95.8719,0,U,64375,999,5700,.11019E-2,.143813E-2,0
STARLINK-11745 [DTC],2025-127G,2026-06-05T01:26:35.913696,15.70876556,.0001017,42.9971,277.8837,325.3691,34.7110,0,U,64376,999,5724,.20373E-2,.270059E-2,0
STARLINK-11742 [DTC],2025-127H,2026-06-04T16:40:09.917472,15.70855902,.00016529,42.9996,280.3130,289.7630,70.3059,0,U,64377,999,5718,.13347191E-2,.174575E-2,0
STARLINK-11711 [DTC],2025-127J,2026-06-05T01:03:39.741408,15.71159906,.0002043,42.9967,277.7531,329.6464,30.4286,0,U,64378,999,5735,.17896E-2,.239108E-2,0
STARLINK-11743 [DTC],2025-127K,2026-06-03T16:00:15.999840,15.70882825,.00016519,43.0001,286.6555,271.2332,329.9754,0,U,64379,999,594,-.89714619E-3,-.114206E-2,0
STARLINK-11744 [DTC],2025-127L,2026-06-04T16:32:31.020288,15.70855302,.00021663,43.0000,280.2693,291.7063,68.3574,0,U,64380,999,5718,.73055679E-3,.94428E-3,0
STARLINK-11692 [DTC],2025-127M,2026-06-03T14:13:03.094752,15.70792137,.0001966,43.0010,286.6509,275.2779,84.7864,0,U,64381,999,5712,.14334E-2,.187307E-2,0
STARLINK-11740 [DTC],2025-127N,2026-06-05T00:56:00.814848,15.71096523,.0002117,42.9986,277.7076,320.2429,39.8284,0,U,64382,999,5724,.15092E-2,.200083E-2,0
STARLINK-34299,2025-127P,2026-06-03T19:26:37.755744,15.27652599,.00021988,42.9994,53.8063,245.3941,114.6681,0,U,64383,999,5558,.10316691E-2,.283E-3,0
STARLINK-34271,2025-127Q,2026-06-05T04:07:16.023072,15.27630710,.0001455,42.9994,45.9596,254.8339,105.2352,0,U,64384,999,5584,.56505E-3,.15343E-3,0
STARLINK-34100,2025-127R,2026-06-05T01:04:31.329120,15.27629367,.0001365,42.9996,46.7288,265.2520,94.8176,0,U,64385,999,5577,.77721E-3,.21219E-3,0
STARLINK-34269,2025-127S,2026-06-01T22:12:31.868640,15.27591193,.00016359,43.0022,63.7322,253.0170,107.0503,0,U,64386,999,5535,.11618384E-2,.31858E-3,0
STARLINK-34351,2025-127T,2026-06-04T14:31:06.212064,15.27635671,.00015868,43.0008,48.5824,248.7312,111.3370,0,U,64387,999,5576,.10078731E-2,.27624E-3,0
STARLINK-34198,2025-127U,2026-06-03T19:39:21.968928,15.27615671,.00016321,43.0011,53.0066,250.6773,109.3902,0,U,64388,999,5564,.71721619E-3,.19548E-3,0
STARLINK-34279,2025-127V,2026-06-01T04:49:37.443648,15.27586698,.00014452,43.0022,68.6258,252.4199,107.6495,0,U,64389,999,5523,.64498264E-3,.17532E-3,0
STARLINK-34292,2025-127W,2026-06-04T18:36:46.287072,15.27692791,.0002729,43.0007,48.1445,244.2805,115.7765,0,U,64390,999,5578,.12086E-2,.33263E-3,0
STARLINK-34278,2025-127X,2026-06-04T17:44:58.198272,15.27645113,.00008777,42.9987,47.8729,215.3926,144.6868,0,U,64391,999,5578,.73769845E-3,.20133E-3,0
STARLINK-33802,2025-127Y,2026-06-04T01:37:42.322080,15.27624544,.00018038,42.9982,52.2952,250.2045,109.8612,0,U,64392,999,5572,.60765404E-3,.1652E-3,0
ZHANGHENG 1-02 (CSES-2),2025-128A,2026-06-05T05:03:18.997056,15.20974364,.0013429,97.3583,283.2747,150.0890,210.1116,0,U,64393,999,5410,.12341E-5,-.41E-6,0
STARLINK-34419,2025-129A,2026-06-03T14:39:18.993600,14.98336494,.00039559,69.9998,217.9599,271.6851,88.3855,0,U,64412,999,5417,.1762867E-3,.2011E-4,0
STARLINK-34275,2025-129B,2026-06-04T06:10:50.918592,14.98330055,.00040295,69.9994,216.2122,275.2669,84.8030,0,U,64413,999,5425,.43370417E-4,.424E-5,0
STARLINK-34225,2025-129C,2026-06-04T05:16:32.880000,14.98337025,.00038202,69.9995,216.4782,267.9859,92.0863,0,U,64414,999,5424,.2769136E-3,.3213E-4,0
STARLINK-34422,2025-129D,2026-06-04T06:22:37.582464,14.98338701,.00037476,69.9997,216.2440,269.4227,90.6502,0,U,64415,999,5419,.23609324E-3,.2726E-4,0
STARLINK-34514,2025-129E,2026-06-04T05:28:31.943136,14.98335265,.00040237,69.9987,216.1130,271.9239,88.1459,0,U,64416,999,5425,.21417155E-3,.2464E-4,0
STARLINK-34487,2025-129F,2026-06-04T05:34:32.718432,14.98335538,.0003674,69.9993,216.1256,269.0559,91.0179,0,U,64417,999,5419,.27509591E-3,.3191E-4,0
STARLINK-34461,2025-129G,2026-06-04T05:10:46.546464,14.98337384,.00035989,69.9996,216.4668,269.8559,90.2187,0,U,64418,999,5424,.24549367E-3,.2838E-4,0
STARLINK-34512,2025-129H,2026-06-05T04:00:03.000096,14.98333044,.0003458,70.0000,213.9903,266.1642,249.9284,0,U,64419,999,568,.89565E-3,.10611E-3,0
STARLINK-34503,2025-129J,2026-06-04T06:34:53.172192,14.98338493,.00036703,69.9999,216.2687,266.7338,93.3401,0,U,64420,999,5419,.23484896E-3,.2711E-4,0
STARLINK-34498,2025-129K,2026-06-04T06:16:37.024896,14.98337843,.00037967,69.9998,216.2311,264.3995,95.6731,0,U,64421,999,5425,.23469175E-3,.2709E-4,0
